{"type": "FeatureCollection", "features": [ {"type": "Feature", "properties": {"norad_id": 40701, "name": "GAOFEN-8", "group": "resource", "lat": -65.13951477452676, "lon": -21.970363645052085, "alt_km": 462.82722942072087, "timestamp": "2025-12-22T08:58:20.000521+00:00", "meta": {"OBJECT_NAME": "GAOFEN-8", "OBJECT_ID": "2015-030A", "EPOCH": "2025-12-22T04:47:06.394848", "MEAN_MOTION": 15.38865779, "ECCENTRICITY": 0.0011716, "INCLINATION": 97.6903, "RA_OF_ASC_NODE": 174.8026, "ARG_OF_PERICENTER": 106.0941, "MEAN_ANOMALY": 254.1594, "EPHEMERIS_TYPE": 0, "CLASSIFICATION_TYPE": "U", "NORAD_CAT_ID": 40701, "ELEMENT_SET_NO": 999, "REV_AT_EPOCH": 58416, "BSTAR": 0.0018069, "MEAN_MOTION_DOT": 0.00070087, "MEAN_MOTION_DDOT": 0}, "tle": {"line1": "1 40701U 15030A   25356.19937957  .00070087  00000+0  18069-2 0  9999", "line2": "2 40701  97.6903 174.8026 0011716 106.0941 254.1594 15.38865779584166"}}, "geometry": {"type": "Point", "coordinates": [-21.970363645052085, -65.13951477452676]}}, {"type": "Feature", "properties": {"norad_id": 40718, "name": "CARBONITE 1 (CBNT-1)", "group": "resource", "lat": 39.51430764117101, "lon": 170.63741169248314, "alt_km": 621.1239173629192, "timestamp": "2025-12-22T08:58:20.000531+00:00", "meta": {"OBJECT_NAME": "CARBONITE 1 (CBNT-1)", "OBJECT_ID": "2015-032D", "EPOCH": "2025-12-22T05:33:11.536128", "MEAN_MOTION": 14.82781986, "ECCENTRICITY": 0.0015044, "INCLINATION": 97.6396, "RA_OF_ASC_NODE": 176.857, "ARG_OF_PERICENTER": 150.3732, "MEAN_ANOMALY": 209.8337, "EPHEMERIS_TYPE": 0, "CLASSIFICATION_TYPE": "U", "NORAD_CAT_ID": 40718, "ELEMENT_SET_NO": 999, "REV_AT_EPOCH": 56311, "BSTAR": 0.00013948, "MEAN_MOTION_DOT": 1.079e-05, "MEAN_MOTION_DDOT": 0}, "tle": {"line1": "1 40718U 15032D   25356.23138352  .00001079  00000+0  13948-3 0  9993", "line2": "2 40718  97.6396 176.8570 0015044 150.3732 209.8337 14.82781986563113"}}, "geometry": {"type": "Point", "coordinates": [170.63741169248314, 39.51430764117101]}}, {"type": "Feature", "properties": {"norad_id": 40878, "name": "YAOGAN-27", "group": "resource", "lat": 79.13770510679056, "lon": -82.704667026826, "alt_km": 1198.1126962441704, "timestamp": "2025-12-22T08:58:20.000541+00:00", "meta": {"OBJECT_NAME": "YAOGAN-27", "OBJECT_ID": "2015-040A", "EPOCH": "2025-12-22T04:53:14.705952", "MEAN_MOTION": 13.16059695, "ECCENTRICITY": 0.0007565, "INCLINATION": 100.1007, "RA_OF_ASC_NODE": 345.3954, "ARG_OF_PERICENTER": 263.2393, "MEAN_ANOMALY": 96.786, "EPHEMERIS_TYPE": 0, "CLASSIFICATION_TYPE": "U", "NORAD_CAT_ID": 40878, "ELEMENT_SET_NO": 999, "REV_AT_EPOCH": 49438, "BSTAR": -0.00021912, "MEAN_MOTION_DOT": -1.26e-06, "MEAN_MOTION_DDOT": 0}, "tle": {"line1": "1 40878U 15040A   25356.20364243 -.00000126  00000+0 -21912-3 0  9990", "line2": "2 40878 100.1007 345.3954 0007565 263.2393  96.7860 13.16059695494381"}}, "geometry": {"type": "Point", "coordinates": [-82.704667026826, 79.13770510679056]}}, {"type": "Feature", "properties": {"norad_id": 40894, "name": "GAOFEN-9 01", "group": "resource", "lat": -50.21168628302015, "lon": 44.20391715972528, "alt_km": 617.1380001159505, "timestamp": "2025-12-22T08:58:20.000551+00:00", "meta": {"OBJECT_NAME": "GAOFEN-9 01", "OBJECT_ID": "2015-047A", "EPOCH": "2025-12-22T04:20:24.936288", "MEAN_MOTION": 14.82444558, "ECCENTRICITY": 0.0027623, "INCLINATION": 97.653, "RA_OF_ASC_NODE": 34.7281, "ARG_OF_PERICENTER": 3.8608, "MEAN_ANOMALY": 356.2814, "EPHEMERIS_TYPE": 0, "CLASSIFICATION_TYPE": "U", "NORAD_CAT_ID": 40894, "ELEMENT_SET_NO": 999, "REV_AT_EPOCH": 55396, "BSTAR": 0.00013629, "MEAN_MOTION_DOT": 1.048e-05, "MEAN_MOTION_DDOT": 0}, "tle": {"line1": "1 40894U 15047A   25356.18084417  .00001048  00000+0  13629-3 0  9992", "line2": "2 40894  97.6530  34.7281 0027623   3.8608 356.2814 14.82444558553969"}}, "geometry": {"type": "Point", "coordinates": [44.20391715972528, -50.21168628302015]}}, {"type": "Feature", "properties": {"norad_id": 41026, "name": "YAOGAN-28", "group": "resource", "lat": 63.927441763150064, "lon": -30.95637556275629, "alt_km": 477.9017910764878, "timestamp": "2025-12-22T08:58:20.000561+00:00", "meta": {"OBJECT_NAME": "YAOGAN-28", "OBJECT_ID": "2015-064A", "EPOCH": "2025-12-22T05:19:10.338816", "MEAN_MOTION": 15.24495381, "ECCENTRICITY": 0.0012651, "INCLINATION": 97.2815, "RA_OF_ASC_NODE": 133.7473, "ARG_OF_PERICENTER": 95.9636, "MEAN_ANOMALY": 264.3044, "EPHEMERIS_TYPE": 0, "CLASSIFICATION_TYPE": "U", "NORAD_CAT_ID": 41026, "ELEMENT_SET_NO": 999, "REV_AT_EPOCH": 56369, "BSTAR": 0.00034548, "MEAN_MOTION_DOT": 8.443e-05, "MEAN_MOTION_DDOT": 0}, "tle": {"line1": "1 41026U 15064A   25356.22164744  .00008443  00000+0  34548-3 0  9995", "line2": "2 41026  97.2815 133.7473 0012651  95.9636 264.3044 15.24495381563692"}}, "geometry": {"type": "Point", "coordinates": [-30.95637556275629, 63.927441763150064]}}, {"type": "Feature", "properties": {"norad_id": 41038, "name": "YAOGAN-29", "group": "resource", "lat": -33.07954455043476, "lon": -165.69366332643224, "alt_km": 626.0613726956026, "timestamp": "2025-12-22T08:58:20.000571+00:00", "meta": {"OBJECT_NAME": "YAOGAN-29", "OBJECT_ID": "2015-069A", "EPOCH": "2025-12-22T04:46:27.075072", "MEAN_MOTION": 14.82890476, "ECCENTRICITY": 6.17e-05, "INCLINATION": 98.0207, "RA_OF_ASC_NODE": 19.4008, "ARG_OF_PERICENTER": 172.5918, "MEAN_ANOMALY": 187.5304, "EPHEMERIS_TYPE": 0, "CLASSIFICATION_TYPE": "U", "NORAD_CAT_ID": 41038, "ELEMENT_SET_NO": 999, "REV_AT_EPOCH": 54439, "BSTAR": -1.3122e-05, "MEAN_MOTION_DOT": -1.6e-06, "MEAN_MOTION_DDOT": 0}, "tle": {"line1": "1 41038U 15069A   25356.19892448 -.00000160  00000+0 -13122-4 0  9994", "line2": "2 41038  98.0207  19.4008 0000617 172.5918 187.5304 14.82890476544395"}}, "geometry": {"type": "Point", "coordinates": [-165.69366332643224, -33.07954455043476]}}, {"type": "Feature", "properties": {"norad_id": 41167, "name": "KENT RIDGE 1", "group": "resource", "lat": 3.0813150687793183, "lon": -51.95898091297893, "alt_km": 498.43720113434483, "timestamp": "2025-12-22T08:58:20.000582+00:00", "meta": {"OBJECT_NAME": "KENT RIDGE 1", "OBJECT_ID": "2015-077B", "EPOCH": "2025-12-21T18:04:45.469920", "MEAN_MOTION": 15.21699918, "ECCENTRICITY": 0.0008539, "INCLINATION": 14.9785, "RA_OF_ASC_NODE": 144.2556, "ARG_OF_PERICENTER": 258.1757, "MEAN_ANOMALY": 101.7607, "EPHEMERIS_TYPE": 0, "CLASSIFICATION_TYPE": "U", "NORAD_CAT_ID": 41167, "ELEMENT_SET_NO": 999, "REV_AT_EPOCH": 55401, "BSTAR": 0.0001344, "MEAN_MOTION_DOT": 3.888e-05, "MEAN_MOTION_DDOT": 0}, "tle": {"line1": "1 41167U 15077B   25355.75330405  .00003888  00000+0  13440-3 0  9997", "line2": "2 41167  14.9785 144.2556 0008539 258.1757 101.7607 15.21699918554010"}}, "geometry": {"type": "Point", "coordinates": [-51.95898091297893, 3.0813150687793183]}}, {"type": "Feature", "properties": {"norad_id": 41194, "name": "GAOFEN-4", "group": "resource", "lat": -0.19530541661868558, "lon": -28.509299972246, "alt_km": 35797.41763146848, "timestamp": "2025-12-22T08:58:20.000593+00:00", "meta": {"OBJECT_NAME": "GAOFEN-4", "OBJECT_ID": "2015-083A", "EPOCH": "2025-12-19T15:27:26.627616", "MEAN_MOTION": 1.00273138, "ECCENTRICITY": 0.0002945, "INCLINATION": 0.1878, "RA_OF_ASC_NODE": 81.7841, "ARG_OF_PERICENTER": 93.4275, "MEAN_ANOMALY": 250.8523, "EPHEMERIS_TYPE": 0, "CLASSIFICATION_TYPE": "U", "NORAD_CAT_ID": 41194, "ELEMENT_SET_NO": 999, "REV_AT_EPOCH": 3672, "BSTAR": 0, "MEAN_MOTION_DOT": -3.11e-06, "MEAN_MOTION_DDOT": 0}, "tle": {"line1": "1 41194U 15083A   25353.64405819 -.00000311  00000+0  00000+0 0  9995", "line2": "2 41194   0.1878  81.7841 0002945  93.4275 250.8523  1.00273138 36722"}}, "geometry": {"type": "Point", "coordinates": [-28.509299972246, -0.19530541661868558]}}, {"type": "Feature", "properties": {"norad_id": 41240, "name": "JASON-3", "group": "resource", "lat": -31.159710068118148, "lon": 121.97329521740936, "alt_km": 1312.7248826146524, "timestamp": "2025-12-22T08:58:20.000605+00:00", "meta": {"OBJECT_NAME": "JASON-3", "OBJECT_ID": "2016-002A", "EPOCH": "2025-12-22T03:33:30.850272", "MEAN_MOTION": 12.87626906, "ECCENTRICITY": 0.0007248, "INCLINATION": 66.0401, "RA_OF_ASC_NODE": 138.0436, "ARG_OF_PERICENTER": 271.3843, "MEAN_ANOMALY": 88.6345, "EPHEMERIS_TYPE": 0, "CLASSIFICATION_TYPE": "U", "NORAD_CAT_ID": 41240, "ELEMENT_SET_NO": 999, "REV_AT_EPOCH": 46445, "BSTAR": 1.8952e-05, "MEAN_MOTION_DOT": -5.7e-07, "MEAN_MOTION_DDOT": 0}, "tle": {"line1": "1 41240U 16002A   25356.14827373 -.00000057  00000+0  18952-4 0  9997", "line2": "2 41240  66.0401 138.0436 0007248 271.3843  88.6345 12.87626906464458"}}, "geometry": {"type": "Point", "coordinates": [121.97329521740936, -31.159710068118148]}}, {"type": "Feature", "properties": {"norad_id": 41335, "name": "SENTINEL-3A", "group": "resource", "lat": 51.008518502789045, "lon": -107.93525380165565, "alt_km": 797.397216397957, "timestamp": "2025-12-22T08:58:20.000615+00:00", "meta": {"OBJECT_NAME": "SENTINEL-3A", "OBJECT_ID": "2016-011A", "EPOCH": "2025-12-22T03:19:28.390656", "MEAN_MOTION": 14.26734203, "ECCENTRICITY": 8.93e-05, "INCLINATION": 98.6301, "RA_OF_ASC_NODE": 61.0199, "ARG_OF_PERICENTER": 94.9187, "MEAN_ANOMALY": 265.2096, "EPHEMERIS_TYPE": 0, "CLASSIFICATION_TYPE": "U", "NORAD_CAT_ID": 41335, "ELEMENT_SET_NO": 999, "REV_AT_EPOCH": 51281, "BSTAR": 7.3146e-05, "MEAN_MOTION_DOT": 1.33e-06, "MEAN_MOTION_DDOT": 0}, "tle": {"line1": "1 41335U 16011A   25356.13852304  .00000133  00000+0  73146-4 0  9993", "line2": "2 41335  98.6301  61.0199 0000893  94.9187 265.2096 14.26734203512818"}}, "geometry": {"type": "Point", "coordinates": [-107.93525380165565, 51.008518502789045]}}]}